[{"OBJECT_NAME":"STARLINK-3554","OBJECT_ID":"2022-022W","EPOCH":"2026-03-09T05:23:01.855392","MEAN_MOTION":15.08840127,"ECCENTRICITY":0.00013595,"INCLINATION":53.2185,"RA_OF_ASC_NODE":11.2121,"ARG_OF_PERICENTER":85.5888,"MEAN_ANOMALY":274.526,"EPHEMERIS_TYPE":0,"CLASSIFICATION_TYPE":"U","NORAD_CAT_ID":51872,"ELEMENT_SET_NO":999,"REV_AT_EPOCH":22304,"BSTAR":8.744037e-6,"MEAN_MOTION_DOT":-1.49e-6,"MEAN_MOTION_DDOT":0},{"OBJECT_NAME":"COSMOS 2251 DEB","OBJECT_ID":"1993-036AJC","EPOCH":"2026-03-07T22:08:36.037248","MEAN_MOTION":15.09712263,"ECCENTRICITY":0.00171889,"INCLINATION":73.9945,"RA_OF_ASC_NODE":155.7464,"ARG_OF_PERICENTER":279.7001,"MEAN_ANOMALY":80.2249,"EPHEMERIS_TYPE":0,"CLASSIFICATION_TYPE":"U","NORAD_CAT_ID":35073,"ELEMENT_SET_NO":999,"REV_AT_EPOCH":68760,"BSTAR":0.00527522,"MEAN_MOTION_DOT":0.00086343,"MEAN_MOTION_DDOT":0}]
